#dP2024 12 24  6  0  0.00000000      96 __u+U IGS20 EXT  IAC
## 2346 194400.00000000   900.00000000 60668 0.2500000000000
+   51   G02G03G04G05G06G07G08G10G11G12G13G14G15G16G17G18G19
+        G20G21G22G23G24G25G26G27G28G29G30G31G32R01R02R03R04
+        R05R07R08R09R11R12R14R15R16R17R18R19R20R21R22R24R26
+          0  0  0  0  0  0  0  0  0  0  0  0  0  0  0  0  0
+          0  0  0  0  0  0  0  0  0  0  0  0  0  0  0  0  0
++         7  8  8  8  7  8  8  7  7  8  7  7  7  7  7  7  7
++         7  7  8  7  7  7  8  7  8  8  7  8  7 10  9  7  9
++         8  9  8  9  9  9  9  8  8  9  8  8 10  8  8  7  8
++         0  0  0  0  0  0  0  0  0  0  0  0  0  0  0  0  0
++         0  0  0  0  0  0  0  0  0  0  0  0  0  0  0  0  0
%c M  cc GPS ccc cccc cccc cccc cccc ccccc ccccc ccccc ccccc
%c cc cc ccc ccc cccc cccc cccc cccc ccccc ccccc ccccc ccccc
%f  0.0000000  0.000000000  0.00000000000  0.000000000000000
%f  0.0000000  0.000000000  0.00000000000  0.000000000000000
%i    0    0    0    0      0      0      0      0         0
%i    0    0    0    0      0      0      0      0         0
/* IAC                                ULTRA-RAPID PREDICTION
/* S/V CLOCKS ARE ALIGNED TO GNSS TIME                      
/* G:C1WC2W R:C1PC2P E:C1XC5X C:C2IC6I J:C1CC2S             
/* PCV:IGS20_2317 OL/AL:FES2004  NONE     YN ORB:CoN CLK:CoN
*  2024 12 25  0  0  0.00000000
PG02  15677.344124   -632.764362  21938.412022   -284.153643
PG03  21910.935080 -10776.100521  10146.541896    632.055813
PG04  23194.804716  -1282.049803 -12998.915205    501.241160
PG05 -17070.370707  -2453.698918 -20393.157652   -197.006288
PG06  -5470.036899 -25920.657480   -322.884955    -69.145382
PG07   8633.509982 -17651.135420 -17122.426586    -14.620749
PG08  26107.595845   5761.894584   1874.335284    446.156711
PG10  -4723.616548  19674.925463  17252.541981   -248.136551
PG11 -12130.818344 -20184.105475 -12300.834859   -752.708166
PG12 -22326.380113   6705.100039  12398.769838   -560.400455
PG13 -22226.769540 -14137.754603  -4528.453124    691.161226
PG14   8389.972460 -20848.727699  14015.456835    566.810101
PG15 -26412.195178  -2600.369289   1763.455998    243.567878
PG16  13528.959395   8638.175850 -21579.247413    -94.870077
PG17    649.760763 -15817.616830  21710.313389    504.775664
PG18  -7215.526886  19686.361745 -16135.502387   -659.764866
PG19 -10838.512355 -17469.450432  16911.788365    577.914706
PG20  -8788.816050 -13192.081240 -21243.376979    367.620187
PG21  16940.870750   7332.141223  19849.058814     98.132521
PG22   1747.220476 -18491.212220  19486.484748    -88.430946
PG23 -16134.288540  20314.456197   5128.935244    390.275855
PG24 -16454.738047  -1745.553244  20378.701001   -470.602998
PG25 -19709.327365  17508.376655   1284.658358    497.698533
PG26   4911.197644  16785.430765 -20073.144543    -21.459812
PG27  21834.050573  13035.244229  -8712.329877    -33.861210
PG28   5318.474148  25960.949770   1763.615590   -517.420159
PG29 -17184.327952   7203.827105 -19019.124762   -553.093988
PG30    580.428802 -25064.918214  -8196.747671   -254.116878
PG31  10549.925293  22771.098432  -8354.205130   -219.316025
PG32   4940.717987  16427.893749  20557.861207   -553.547393
PR01 -10485.956935  -9273.304371 -21324.100928    108.912916
PR02 -23461.608738  -3404.320597  -9270.572678    -38.925120
PR03 -23523.497323   5076.432818   8405.684709    113.828941
PR04 -10858.294561   9996.195871  20827.554976    269.855949
PR05   7633.529780   9959.028202  22224.082655    142.708571
PR07  23477.007668  -5131.613938  -8597.172082     97.574530
PR08  10579.551784 -10206.262930 -20797.551790     -6.169009
PR09  10897.487462   3407.919335 -22792.270504    228.165493
PR11  11795.836594 -22586.887170   -947.101374      3.320279
PR12    400.925694 -18951.941274  17092.771127     48.811580
PR14 -15103.154238  13545.172433  15479.480256     27.495768
PR15 -11162.516235  22923.302245   -859.287838     72.870915
PR16   -577.414170  19017.809952 -17006.130272     31.916115
PR17 -11122.472356   2088.243122 -22849.115269    151.459705
PR18   -445.046393  16246.729149 -19655.573827    178.502083
PR19   8656.634797  22508.649653  -8300.300255   -303.105067
PR20  15581.860231  15624.321474  12848.280409   -123.732504
PR21  11637.601804   -859.132221  22685.577046   -162.372734
PR22    268.177637 -17198.864360  18862.453051    -53.034254
PR24 -16540.712005 -14339.661266 -13083.955547    -85.410007
PR26  12345.293614  -9966.351928 -19946.711983   -132.452828
*  2024 12 25  0 15  0.00000000
PG02  16430.865552   1615.471092  21348.704858   -284.145589
PG03  21070.050728  -9736.780158  12642.025984    632.063358
PG04  24419.576094   -691.135065 -10593.575130    501.246613
PG05 -15520.019367  -4215.296132 -21324.895369   -197.007289
PG06  -5264.119790 -25844.230157   2591.767082    -69.170630
PG07   9353.715726 -15602.035344 -18660.153139    -14.619832
PG08  26114.551432   6020.801962   -933.035158    446.164448
PG10  -6129.996146  20851.372213  15259.244056   -248.150709
PG11 -12187.892878 -21468.787793  -9835.150882   -752.708054
PG12 -21250.001736   5514.438509  14629.257517   -560.402532
PG13 -21560.524971 -14053.015450  -7288.760382    691.162373
PG14   9643.998069 -21673.566841  11747.111734    566.816839
PG15 -26473.095509  -2919.922633  -1037.309440    243.571975
PG16  11674.650445  10179.386367 -21953.204294    -94.861434
PG17   2947.108469 -15062.085644  22079.080233    504.760839
PG18  -7811.221405  17812.122717 -17951.126499   -659.764189
PG19  -8897.656773 -16832.980912  18555.784257    577.918921
PG20  -7344.848683 -15117.305975 -20511.066852    367.619912
PG21  17584.910567   9319.441666  18474.155401     98.134649
PG22   3416.255967 -19710.668625  18010.514647    -88.433038
PG23 -16575.836394  20470.729692   2258.076335    390.282740
PG24 -17182.414447  -4009.721499  19495.174809   -470.599943
PG25 -19684.540535  17041.300867   4110.302560    497.698122
PG26   3349.358206  18366.989423 -18933.023095    -21.472859
PG27  20731.965238  12940.072249 -11228.830455    -33.860843
PG28   4974.476736  25680.313486   4589.363984   -517.429493
PG29 -19090.283611   6382.613313 -17435.640065   -553.091017
PG30   1165.515183 -24066.235651 -10720.808986   -254.109492
PG31  10450.352328  23595.829129  -5645.243623   -219.315357
PG32   2657.645512  15875.925149  21387.525909   -553.541716
PR01  -7802.629845  -9524.824173 -22339.060079    108.914051
PR02 -22123.479847  -3347.845251 -12132.272166    -38.924902
PR03 -24350.500865   5301.598378   5325.831738    113.829446
PR04 -13312.133901  10262.069770  19207.527338    269.857346
PR05   4852.120424  10105.302715  22926.126569    142.709117
PR07  24337.868029  -5364.691607  -5533.839204     97.575156
PR08  13046.238985 -10488.446970 -19203.050932     -6.169117
PR09   9790.614447   5993.416719 -22768.330193    228.167451
PR11  11534.661086 -22360.604209  -4139.382871      3.318810
PR12   1142.836483 -20771.974737  14787.908293     48.811957
PR14 -14183.551156  11718.305254  17682.346659     27.496056
PR15 -11008.224570  22896.037407   2341.429745     72.870580
PR16  -1295.684130  20838.869476 -14676.016186     31.916426
PR17 -12727.576184   -180.203347 -22097.550987    151.462696
PR18  -1763.312469  14089.649388 -21180.919751    178.503769
PR19   8185.937866  21378.017865 -11242.865199   -303.106420
PR20  16485.329445  16723.608779  10026.831014   -123.733172
PR21  13211.113966   1391.053307  21776.904369   -162.375569
PR22   1503.176004 -15112.073659  20522.372797    -53.045975
PR24 -17466.500558 -15459.725355 -10319.607237    -85.411384
PR26  14683.838395 -10263.781089 -18129.332254   -132.452532
EOF
